MOST                    
1 27843U 03031D   22140.74614014  .00000102  00000+0  67722-4 0  9997
2 27843  98.7079 148.7580 0009183 223.0620 136.9839 14.20681269979312
CUTE-1 (CO-55)          
1 27844U 03031E   22143.80712628  .00000366  00000+0  18372-3 0  9996
2 27844  98.6784 151.8661 0010135 166.2469 193.8987 14.22441216980369
CUBESAT XI-IV (CO-57)   
1 27848U 03031J   22142.98844650  .00000361  00000+0  18300-3 0  9995
2 27848  98.6833 151.5843 0009641 182.6112 177.5017 14.21999316980062
GALAXY 23 (G-23)        
1 27854U 03034A   22143.65424449  .00000004  00000+0  00000+0 0  9998
2 27854   0.0061 335.6971 0003091  93.6190 286.4675  1.00272046 68846
SCISAT 1                
1 27858U 03036A   22143.66191502  .00000846  00000+0  12337-3 0  9990
2 27858  73.9338 233.0366 0009292 277.0976  82.9141 14.77546361 11773
COSMOS 2400             
1 27868U 03037A   22143.79987109  .00000038  00000+0  19261-3 0  9998
2 27868  82.4732 181.1880 0023000  67.2967 293.0536 12.45147287852787
COSMOS 2401             
1 27869U 03037B   22143.81618945  .00000033  00000+0  15675-3 0  9991
2 27869  82.4704 178.2015 0023689  64.7144 295.6388 12.45463814853002
USA 170                 
1 27875U 03040A   22143.16763694 -.00000281  00000+0  00000+0 0  9990
2 27875   7.3325  60.0834 0003132  32.5980 166.1528  1.00272638 18061
MOZHAYETS 4 (RS-22)     
1 27939U 03042A   22143.78079864  .00001484  00000+0  27142-3 0  9995
2 27939  98.1886 284.5128 0011599 287.0880  72.9063 14.67327334997428
GALAXY 13 (HORIZONS-1)  
1 27954U 03044A   22143.65311066  .00000038  00000+0  00000+0 0  9997
2 27954   0.0156  84.4086 0000561 276.2109 348.7357  1.00277923 31675
IRS-P6 (RESOURCESAT-1)  
1 28051U 03046A   22143.75829267  .00000294  00000+0  11740-3 0  9997
2 28051  98.4053 215.3993 0059961  91.3172 269.4882 14.34200095967483
DMSP 5D-3 F16 (USA 172) 
1 28054U 03048A   22143.89410303  .00000100  00000+0  76723-4 0  9993
2 28054  98.9873 134.5797 0008031  34.1643  24.9803 14.13672841959561
CHUANGXIN 1 (CX-1)      
1 28058U 03049B   22143.86272133  .00000207  00000+0  69514-4 0  9990
2 28058  98.6964 357.3962 0012842   0.2252 359.8943 14.47134447981378
YAMAL 202               
1 28089U 03053A   22143.85450685 -.00000087  00000+0  00000+0 0  9995
2 28089   2.5748  88.2018 0006635 349.8857 274.4641  1.00271230 67788
UFO 11 (USA 174)        
1 28117U 03057A   22143.76497661 -.00000102  00000+0  00000+0 0  9994
2 28117   6.9507  37.9118 0006335  27.3306 165.9573  1.00271755 67552
USA 176 (DSP 22)        
1 28158U 04004A   22142.98478987 -.00000230  00000+0  00000+0 0  9997
2 28158  10.0604  35.4185 0000571  48.4643 238.5852  1.00273028 18022
ABS-4 (MOBISAT-1)       
1 28184U 04007A   22143.83401057  .00000033  00000+0  00000+0 0  9998
2 28184   2.2616  89.4051 0005652 336.9130 176.2838  1.00272950 37441
EUTELSAT 7A             
1 28187U 04008A   22143.65066855  .00000097  00000+0  00000+0 0  9995
2 28187   2.0496  88.4388 0004260 335.2054 272.6159  1.00271194 66450
NAVSTAR 54 (USA 177)    
1 28190U 04009A   22143.32444865 -.00000070  00000+0  00000+0 0  9997
2 28190  56.0193 335.0325 0090361 119.2034  27.4603  2.00560823133146
SHIYAN 1 (SY-1)         
1 28220U 04012A   22142.55037971  .00005272  00000+0  40874-3 0  9990
2 28220  97.9765 133.9620 0015274  65.9314 294.3506 15.01756818986183
AMC-11 (GE-11)          
1 28252U 04017A   22143.59599494  .00000060  00000+0  00000+0 0  9991
2 28252   0.0186   4.5811 0002788  61.8944 258.2626  1.00272970 65989
INTELSAT 10-02          
1 28358U 04022A   22143.82171281 -.00000020  00000+0  00000+0 0  9997
2 28358   0.0174 301.6467 0000952 140.0662  94.5269  1.00271845 65657
APRIZESAT 2             
1 28366U 04025A   22143.14508614  .00000240  00000+0  89257-4 0  9997
2 28366  98.1691  13.5666 0108625  51.7562 309.3341 14.36812491938187
SAUDICOMSAT 1           
1 28369U 04025D   22143.84650731  .00000494  00000+0  13093-3 0  9990
2 28369  98.4380 105.3236 0032191 249.5105 110.2634 14.52782445948273
SAUDICOMSAT 2           
1 28370U 04025E   22142.62248913  .00000585  00000+0  16765-3 0  9992
2 28370  98.5300 103.0252 0059035  80.1826 280.6026 14.47681406944896
SAUDISAT 2              
1 28371U 04025F   22143.86673797  .00000449  00000+0  11584-3 0  9995
2 28371  98.3750 100.5630 0025296 177.8360 182.2941 14.54548354949716
APRIZESAT 1             
1 28372U 04025G   22143.13557098  .00000524  00000+0  14620-3 0  9999
2 28372  98.4911 103.8259 0046103 354.2219   5.8436 14.49791795946432
AURA                    
1 28376U 04026A   22143.84380079  .00000949  00000+0  22065-3 0  9998
2 28376  98.2081  87.5328 0001528  85.0839 275.0533 14.57129350949642
ANIK F2                 
1 28378U 04027A   22143.65598887 -.00000059  00000+0  00000+0 0  9992
2 28378   0.0719 101.2168 0001284  85.1556 179.9571  1.00274890 26368
COSMOS 2407             
1 28380U 04028A   22143.56822639  .00000064  00000+0  49480-4 0  9996
2 28380  82.9585  94.8510 0040789  86.6134 273.9702 13.76112836895744
SHIJIAN-6 01A (SJ-6 01A)
1 28413U 04035A   22143.69382783  .00003891  00000+0  35926-3 0  9996
2 28413  97.7117 164.6604 0013501 131.9192 228.3151 14.95127383964324
SHIJIAN-6 01B (SJ-6 01B)
1 28414U 04035B   22143.80351604  .00001452  00000+0  13928-3 0  9997
2 28414  97.7159 164.6458 0007724 125.6517 234.5421 14.94624557964276
COSMOS 2408             
1 28419U 04037A   22143.76166083  .00000037  00000+0  19279-3 0  9997
2 28419  82.4856 176.3581 0014662 286.1049  73.8418 12.45630238803139
COSMOS 2409             
1 28420U 04037B   22143.78434122  .00000034  00000+0  16800-3 0  9997
2 28420  82.4860 178.9358 0012386 296.8682  63.1128 12.45282969802940
AMC-15                  
1 28446U 04041A   22143.61834993 -.00000097  00000+0  00000+0 0  9993
2 28446   0.0285  36.2080 0002603  13.8489 308.6851  1.00271199 64421
JB-3 3 (ZY 2C)          
1 28470U 04044A   22141.60392330  .00004693  00000+0  33803-3 0  9990
2 28470  97.2422 356.8888 0044097 332.7101  27.1809 15.03847754963173
NAVSTAR 56 (USA 180)    
1 28474U 04045A   22143.39192080 -.00000108  00000+0  00000+0 0  9990
2 28474  55.3426  24.4484 0206686 278.7818 186.0371  2.00564658128639
SWIFT                   
1 28485U 04047A   22143.59379622  .00005599  00000+0  34008-3 0  9992
2 28485  20.5562 124.8916 0010491 344.8271  15.1848 15.06288013959794
HELIOS 2A               
1 28492U 04049A   22143.79609716  .00003309  00000+0  32293-3 0  9995
2 28492  98.2324  85.6791 0015047 157.2330 202.9579 14.93095009931444
NANOSAT-1               
1 28493U 04049B   22143.86677553  .00001123  00000+0  17882-3 0  9997
2 28493  98.1107 244.6491 0004867  28.6125 331.5350 14.73967810936243
COSMOS 2414             
1 28521U 05002A   22143.80597793  .00000086  00000+0  59661-4 0  9999
2 28521  82.9489  86.8690 0038727 243.9072 115.8106 13.87655985878137
NSS-10 (AMC-12)         
1 28526U 05003A   22143.81438649 -.00000258  00000+0  00000+0 0  9990
2 28526   2.7253  87.6017 0003033 325.0235  84.4871  1.00270145 38263
XTAR-EUR                
1 28542U 05005A   22143.25055571  .00000142  00000+0  00000+0 0  9998
2 28542   0.5163  94.7853 0003333 332.0525 293.1920  1.00272273 63296
XM-3 (RHYTHM)           
1 28626U 05008A   22143.80496692 -.00000214  00000+0  00000+0 0  9999
2 28626   0.0499 122.0925 0000944  60.8524 263.1259  1.00271659 27728
INMARSAT 4-F1           
1 28628U 05009A   22143.63526090 -.00000270  00000+0  00000+0 0  9991
2 28628   3.5960  34.8373 0003074  39.1619 179.4016  1.00271138 62775
IRS-P5 (CARTOSAT-1)     
1 28649U 05017A   22143.60929381  .00001507  00000+0  18674-3 0  9993
2 28649  97.7203 204.8041 0000540  28.2816 331.8428 14.84111901923052
NOAA 18                 
1 28654U 05018A   22143.84282058  .00000217  00000+0  14091-3 0  9995
2 28654  98.9497 214.2974 0014920  45.1471 315.0910 14.12732328876508
DIRECTV 8               
1 28659U 05019A   22143.65468059 -.00000008  00000+0  00000+0 0  9997
2 28659   0.0161 290.1954 0002952 136.9971 290.6825  1.00272755 62171
GALAXY 28 (G-28)        
1 28702U 05022A   22143.80418197 -.00000194  00000+0  00000+0 0  9991
2 28702   0.0099 331.1489 0002816 129.2988 341.4412  1.00270488 37092
EXPRESS-AM3             
1 28707U 05023A   22143.84500007 -.00000186  00000+0  00000+0 0  9994
2 28707   3.5382  84.0623 0001944 348.7167 228.6863  0.98999272 38500
SJ-7                    
1 28737U 05024A   22142.98524150  .00005078  00000+0  43838-3 0  9991
2 28737  97.7136 141.5271 0033805  50.5097 309.9105 14.97253799924185
THAICOM 4               
1 28786U 05028A   22143.84569781 -.00000371  00000+0  00000+0 0  9996
2 28786   0.0142 337.2253 0002175  86.3290 241.8257  1.00269939 37365
GALAXY 14 (G-14)        
1 28790U 05030A   22143.82842861  .00000147  00000+0  00000+0 0  9995
2 28790   1.2029  92.4092 0002152 325.5465 154.5870  1.00269300 61411
REIMEI (INDEX)          
1 28810U 05031B   22142.14382385  .00002913  00000+0  29570-3 0  9993
2 28810  98.0562 204.0639 0028343  45.7724 314.5814 14.91384775908196
ANIK F1R                
1 28868U 05036A   22143.65703549 -.00000083  00000+0  00000+0 0  9997
2 28868   0.4995  93.6859 0003347 335.3190 301.4722  1.00271909 31554
NAVSTAR 57 (USA 183)    
1 28874U 05038A   22143.32733078 -.00000067  00000+0  00000+0 0  9992
2 28874  56.0865 332.4660 0137172 274.4285 254.8755  2.00577871122039
GALAXY 15 (G-15)        
1 28884U 05041A   22143.65171517  .00000070  00000+0  00000+0 0  9990
2 28884   0.0189 330.1293 0001783  86.1121 286.6158  1.00271514 60710
SYRACUSE 3A             
1 28885U 05041B   22143.83130681  .00000120  00000+0  00000+0 0  9994
2 28885   1.0615  93.5820 0003292 328.1575 165.9498  1.00273755 60851
BEIJING 1               
1 28890U 05043A   22143.82638507  .00000471  00000+0  10440-3 0  9993
2 28890  98.1141 266.6897 0014029 249.4250 110.5453 14.61443351883548
